OBJECT_NAME,OBJECT_ID,EPOCH,MEAN_MOTION,ECCENTRICITY,INCLINATION,RA_OF_ASC_NODE,ARG_OF_PERICENTER,MEAN_ANOMALY,EPHEMERIS_TYPE,CLASSIFICATION_TYPE,NORAD_CAT_ID,ELEMENT_SET_NO,REV_AT_EPOCH,BSTAR,MEAN_MOTION_DOT,MEAN_MOTION_DDOT
ATLAS CENTAUR 2,1963-047A,2026-06-13T00:57:35.832384,14.12511225,.05459713,30.3568,22.5858,200.9394,156.8018,0,U,694,999,14511,.14514827E-3,.131E-4,0
THOR AGENA D R/B,1964-002A,2026-06-13T07:40:07.035168,14.34064300,.00325078,99.1155,182.8429,342.0119,17.9911,0,U,733,999,25200,.75345315E-4,.163E-5,0
SL-3 R/B,1964-053B,2026-06-13T02:05:29.283936,14.61425099,.00810827,65.0775,51.5345,262.4007,96.7878,0,U,877,999,28073,.43793671E-4,.101E-5,0
SL-8 R/B,1967-045B,2026-06-13T06:43:00.440544,14.45680695,.0063586,74.0094,169.5564,154.9687,205.4578,0,U,2802,999,10283,.63621767E-4,.203E-5,0
SL-8 R/B,1968-040B,2026-06-13T06:11:22.836480,15.03797545,.00259755,74.0298,118.3262,272.1896,87.6319,0,U,3230,999,10437,.17991156E-3,.2447E-4,0
OAO 2,1968-110A,2026-06-12T12:02:08.286720,14.47350198,.00061516,34.9934,95.8415,240.2281,119.7798,0,U,3597,999,3284,.53150837E-4,.179E-5,0
ISIS 1,1969-009A,2026-06-13T05:00:21.334464,11.30433413,.17061052,88.4426,144.8369,256.2660,84.3511,0,U,3669,999,35932,.32747093E-4,.44E-6,0
SERT 2,1970-009A,2026-06-13T06:57:54.161280,13.58738889,.00039925,99.2843,102.2125,285.7540,192.8654,0,U,4327,999,79287,.28519922E-4,-.21E-6,0
SL-3 R/B,1971-028B,2026-06-13T03:59:35.975904,15.69376987,.00138896,81.2330,293.3721,295.1872,64.7945,0,U,5118,999,361,.44586639E-3,.5269E-3,0
ASTEX 1,1971-089A,2026-06-13T01:43:44.954112,14.50848772,.00176713,92.6999,182.5305,118.3120,241.9872,0,U,5560,999,87613,.11550098E-3,.455E-5,0
SL-8 R/B,1971-119B,2026-06-13T06:21:10.276128,14.39483479,.05437761,73.8874,356.8159,303.5717,51.4631,0,U,5730,999,66923,.16970144E-3,.3276E-4,0
OAO 3 (COPERNICUS),1972-065A,2026-06-12T04:01:23.098944,14.60057663,.00070625,35.0049,119.0054,217.5316,159.2869,0,U,6153,999,86001,.59115879E-4,.268E-5,0
ATLAS CENTAUR R/B,1972-065B,2026-06-13T03:46:01.560000,14.77913609,.00327878,35.0011,106.1686,94.2707,266.1741,0,U,6155,999,85539,.14465523E-3,.1043E-4,0
SL-8 R/B,1975-112B,2026-06-13T06:49:55.264224,14.38244473,.00168633,74.0595,203.0533,270.4680,89.4541,0,U,8459,999,64561,.79302784E-4,.215E-5,0
SL-3 R/B,1977-057B,2026-06-13T05:00:47.456640,15.47805664,.00055024,97.5829,340.5580,302.9281,57.1439,0,U,10114,999,68309,.21657484E-3,.11152E-3,0
SEASAT 1,1978-064A,2026-06-13T05:28:02.993952,14.46240672,.00019268,108.0167,325.9775,240.4839,119.6115,0,U,10967,999,52032,.10997112E-3,.256E-5,0
SL-14 R/B,1979-011B,2026-06-13T06:51:30.107232,14.92010984,.00175388,82.5239,5.8571,97.4744,262.8469,0,U,11267,999,54303,.46921107E-4,.503E-5,0
SL-8 R/B,1979-089B,2026-06-12T20:03:06.085440,14.42402251,.00149059,74.0694,274.9130,60.4052,299.8587,0,U,11574,999,44982,.66799341E-4,.195E-5,0
SL-14 R/B,1980-005B,2026-06-13T05:27:36.285984,14.91026009,.00151211,82.5143,216.5964,199.3579,160.7068,0,U,11672,999,49072,.39678545E-4,.418E-5,0
SL-8 R/B,1981-003B,2026-06-13T04:29:16.786176,15.14106713,.02505162,82.9367,201.4881,205.1506,153.7361,0,U,12139,999,32911,.39623392E-3,.16129E-3,0
SL-3 R/B,1981-046B,2026-06-13T07:13:56.316864,15.44121148,.00189026,81.2291,174.7498,50.6862,309.6053,0,U,12465,999,45317,.24594629E-3,.11362E-3,0
SL-3 R/B,1981-103B,2026-06-13T05:47:49.278048,15.22253777,.00120167,81.1585,101.2679,330.4737,29.5815,0,U,12904,999,98776,.21586278E-3,.4998E-4,0
SL-3 R/B,1982-013B,2026-06-13T05:08:44.211840,15.22764279,.0021124,81.1750,48.7214,214.6215,145.3643,0,U,13068,999,41888,.15393224E-3,.3641E-4,0
SL-3 R/B,1982-039B,2026-06-13T06:13:01.836192,15.10515477,.0029316,81.1436,105.6252,9.1765,350.9989,0,U,13154,999,39606,.19548726E-3,.3276E-4,0
SL-3 R/B,1982-079B,2026-06-13T05:55:37.616160,15.25757856,.00233908,81.1468,80.1475,198.9438,161.0928,0,U,13403,999,39226,.18523065E-3,.479E-4,0
SL-14 R/B,1982-092B,2026-06-13T03:48:21.375936,14.86745207,.00200116,82.5683,52.0730,348.9555,125.4530,0,U,13553,999,34311,.39444096E-4,.377E-5,0
SL-3 R/B,1983-010B,2026-06-13T07:30:32.523552,15.49146066,.00157247,81.1025,244.7353,75.3495,284.9493,0,U,13819,999,37273,.27261455E-3,.14937E-3,0
SL-3 R/B,1983-075B,2026-06-13T07:14:05.250624,15.40426537,.00189986,97.6098,172.6471,244.1341,115.7946,0,U,14208,999,34486,.24544017E-3,.9903E-4,0
COSMOS 1536,1984-013A,2026-06-13T06:59:13.280352,15.25014146,.00128892,82.5445,12.7262,310.7061,49.3057,0,U,14699,999,28718,.210763E-3,.5304E-4,0
SL-14 R/B,1984-027B,2026-06-13T00:57:58.876128,14.86056856,.00185307,82.5410,155.6060,22.5882,337.6146,0,U,14820,999,26179,.45475602E-4,.423E-5,0
