ATLAS CENTAUR 2         
1 00694U 63047A   26164.03999806  .00001310  00000+0  14515-3 0  9995
2 00694  30.3568  22.5858 0545971 200.9394 156.8018 14.12511225145119
THOR AGENA D R/B        
1 00733U 64002A   26164.31952587  .00000163  00000+0  75345-4 0  9991
2 00733  99.1155 182.8429 0032507 342.0119  17.9911 14.34064300252008
SL-3 R/B                
1 00877U 64053B   26164.08714449  .00000101  00000+0  43794-4 0  9998
2 00877  65.0775  51.5345 0081082 262.4007  96.7878 14.61425099280733
SL-8 R/B                
1 02802U 67045B   26164.27986621  .00000203  00000+0  63622-4 0  9991
2 02802  74.0094 169.5564 0063586 154.9687 205.4578 14.45680695102835
SL-8 R/B                
1 03230U 68040B   26164.25790320  .00002447  00000+0  17991-3 0  9999
2 03230  74.0298 118.3262 0025975 272.1896  87.6319 15.03797545104371
OAO 2                   
1 03597U 68110A   26163.50148480  .00000179  00000+0  53151-4 0  9993
2 03597  34.9934  95.8415 0006151 240.2281 119.7798 14.47350198 32843
ISIS 1                  
1 03669U 69009A   26164.20858026  .00000044  00000+0  32747-4 0  9992
2 03669  88.4426 144.8369 1706105 256.2660  84.3511 11.30433413359327
SERT 2                  
1 04327U 70009A   26164.29021020 -.00000021  00000+0  28520-4 0  9991
2 04327  99.2843 102.2125 0003992 285.7540 192.8654 13.58738889792878
SL-3 R/B                
1 05118U 71028B   26164.16638861  .00052690  00000+0  44587-3 0  9993
2 05118  81.2330 293.3721 0013889 295.1872  64.7945 15.69376987  3610
ASTEX 1                 
1 05560U 71089A   26164.07204808  .00000455  00000+0  11550-3 0  9997
2 05560  92.6999 182.5305 0017671 118.3120 241.9872 14.50848772876138
SL-8 R/B                
1 05730U 71119B   26164.26470227  .00003276  00000+0  16970-3 0  9996
2 05730  73.8874 356.8159 0543776 303.5717  51.4631 14.39483479669237
OAO 3 (COPERNICUS)      
1 06153U 72065A   26163.16762846  .00000268  00000+0  59116-4 0  9994
2 06153  35.0049 119.0054 0007062 217.5316 159.2869 14.60057663860011
ATLAS CENTAUR R/B       
1 06155U 72065B   26164.15696250  .00001043  00000+0  14466-3 0  9991
2 06155  35.0011 106.1686 0032787  94.2707 266.1741 14.77913609855397
SL-8 R/B                
1 08459U 75112B   26164.28466741  .00000215  00000+0  79303-4 0  9992
2 08459  74.0595 203.0533 0016863 270.4680  89.4541 14.38244473645618
SL-3 R/B                
1 10114U 77057B   26164.20888260  .00011152  00000+0  21657-3 0  9999
2 10114  97.5829 340.5580 0005502 302.9281  57.1439 15.47805664683092
SEASAT 1                
1 10967U 78064A   26164.22781243  .00000256  00000+0  10997-3 0  9997
2 10967 108.0167 325.9775 0001926 240.4839 119.6115 14.46240672520326
SL-14 R/B               
1 11267U 79011B   26164.28576513  .00000503  00000+0  46921-4 0  9994
2 11267  82.5239   5.8571 0017538  97.4744 262.8469 14.92010984543033
SL-8 R/B                
1 11574U 79089B   26163.83548710  .00000195  00000+0  66799-4 0  9990
2 11574  74.0694 274.9130 0014905  60.4052 299.8587 14.42402251449822
SL-14 R/B               
1 11672U 80005B   26164.22750331  .00000418  00000+0  39679-4 0  9992
2 11672  82.5143 216.5964 0015121 199.3579 160.7068 14.91026009490720
SL-8 R/B                
1 12139U 81003B   26164.18699984  .00016129  00000+0  39623-3 0  9995
2 12139  82.9367 201.4881 0250516 205.1506 153.7361 15.14106713329116
SL-3 R/B                
1 12465U 81046B   26164.30134626  .00011362  00000+0  24595-3 0  9991
2 12465  81.2291 174.7498 0018902  50.6862 309.6053 15.44121148453177
SL-3 R/B                
1 12904U 81103B   26164.24154257  .00004998  00000+0  21586-3 0  9992
2 12904  81.1585 101.2679 0012016 330.4737  29.5815 15.22253777987767
SL-3 R/B                
1 13068U 82013B   26164.21440060  .00003641  00000+0  15393-3 0  9995
2 13068  81.1750  48.7214 0021124 214.6215 145.3643 15.22764279418889
SL-3 R/B                
1 13154U 82039B   26164.25904903  .00003276  00000+0  19549-3 0  9995
2 13154  81.1436 105.6252 0029316   9.1765 350.9989 15.10515477396062
SL-3 R/B                
1 13403U 82079B   26164.24696315  .00004790  00000+0  18523-3 0  9993
2 13403  81.1468  80.1475 0023390 198.9438 161.0928 15.25757856392265
SL-14 R/B               
1 13553U 82092B   26164.15858074  .00000377  00000+0  39444-4 0  9999
2 13553  82.5683  52.0730 0020011 348.9555 125.4530 14.86745207343117
SL-3 R/B                
1 13819U 83010B   26164.31287643  .00014937  00000+0  27261-3 0  9991
2 13819  81.1025 244.7353 0015724  75.3495 284.9493 15.49146066372734
SL-3 R/B                
1 14208U 83075B   26164.30144966  .00009903  00000+0  24544-3 0  9992
2 14208  97.6098 172.6471 0018998 244.1341 115.7946 15.40426537344863
COSMOS 1536             
1 14699U 84013A   26164.29112593  .00005304  00000+0  21076-3 0  9996
2 14699  82.5445  12.7262 0012889 310.7061  49.3057 15.25014146287188
SL-14 R/B               
1 14820U 84027B   26164.04026477  .00000423  00000+0  45476-4 0  9993
2 14820  82.5410 155.6060 0018530  22.5882 337.6146 14.86056856261798
